STARLINK-5101           
1 54822U 22177C   23016.33334491 -.01032744  00000+0 -11209-1 0  9998
2 54822  42.9971 260.7664 0001811 270.2565 113.6696 15.65359615  3140
STARLINK-5106           
1 54823U 22177D   23016.33334491 -.01241832  00000+0 -13520-1 0  9997
2 54823  42.9969 260.7782 0001646 264.3049 115.1411 15.65345755  3148
STARLINK-4643           
1 54824U 22177E   23016.33334491 -.01237896  00000+0 -13455-1 0  9990
2 54824  42.9967 260.7748 0001544 270.0628 110.2700 15.65378471  3141
STARLINK-4801           
1 54825U 22177F   23015.91668981 -.01195008  00000+0 -12369-1 0  9999
2 54825  42.9975 263.2686 0001264 264.5210 285.8644 15.66488584  1304
STARLINK-5107           
1 54826U 22177G   23016.33334491 -.01266129  00000+0 -13854-1 0  9996
2 54826  42.9965 260.7659 0002093 266.9442 116.9742 15.65272183  3142
STARLINK-5383           
1 54827U 22177H   23016.33334491 -.01241542  00000+0 -13387-1 0  9990
2 54827  42.9982 260.7650 0001598 266.2584 119.3382 15.65584173  3144
STARLINK-5381           
1 54828U 22177J   23016.33334491 -.01240995  00000+0 -13361-1 0  9994
2 54828  42.9974 260.7614 0001595 267.1741 119.3138 15.65620064  3147
STARLINK-5380           
1 54829U 22177K   23016.33334491 -.01240836  00000+0 -13472-1 0  9992
2 54829  42.9969 260.7737 0001598 268.6161 112.5816 15.65412069  3145
STARLINK-5394           
1 54830U 22177L   23016.33334491 -.01241026  00000+0 -13305-1 0  9991
2 54830  42.9973 260.7548 0001620 266.3217 122.7915 15.65724133  3146
STARLINK-5395           
1 54831U 22177M   23016.33334491 -.01241001  00000+0 -13398-1 0  9997
2 54831  42.9971 260.7652 0001611 265.2956 119.4441 15.65551733  3140
STARLINK-5393           
1 54832U 22177N   23015.91668981 -.00027208  00000+0 -20471-3 0  9997
2 54832  43.0004 263.2224 0001885 259.4031 313.0456 15.71354289  1303
STARLINK-5391           
1 54833U 22177P   23016.33334491 -.01240878  00000+0 -13321-1 0  9996
2 54833  42.9955 260.7548 0001599 273.4263 114.8293 15.65691370  3141
STARLINK-5386           
1 54834U 22177Q   23016.33334491 -.01240332  00000+0 -13281-1 0  9997
2 54834  42.9979 260.7488 0001626 266.1038 124.4342 15.65753249  3147
STARLINK-5389           
1 54835U 22177R   23016.33334491 -.01240506  00000+0 -13337-1 0  9993
2 54835  42.9965 260.7577 0001606 269.0139 118.3433 15.65653479  3141
STARLINK-5384           
1 54836U 22177S   23016.33334491 -.01240603  00000+0 -13249-1 0  9994
2 54836  42.9966 260.7453 0001619 265.0325 127.2123 15.65818757  3140
STARLINK-5369           
1 54837U 22177T   23016.33334491 -.01241375  00000+0 -13275-1 0  9991
2 54837  42.9974 260.7490 0001625 264.3664 127.0328 15.65787468  3145
STARLINK-5372           
1 54838U 22177U   23016.33334491 -.01251873  00000+0 -13341-1 0  9990
2 54838  42.9946 260.7384 0001585 271.4001 122.5674 15.65896834  3148
STARLINK-5110           
1 54839U 22177V   23015.91668981 -.01194199  00000+0 -12106-1 0  9993
2 54839  42.9970 263.2362 0001263 272.6103 290.6033 15.66995887  1300
STARLINK-5368           
1 54840U 22177W   23015.91668981 -.01193856  00000+0 -12086-1 0  9991
2 54840  42.9952 263.2306 0001255 270.5503 293.4607 15.67028492  1300
STARLINK-4659           
1 54841U 22177X   23016.33334491 -.01241600  00000+0 -13240-1 0  9999
2 54841  42.9957 260.7409 0001588 269.2468 123.8934 15.65857833  3146
STARLINK-5387           
1 54842U 22177Y   23016.33334491 -.01242502  00000+0 -13144-1 0  9995
2 54842  42.9977 260.7307 0001595 272.1419 126.0856 15.66056823  3142
STARLINK-5304           
1 54843U 22177Z   23015.91668981 -.01194186  00000+0 -12124-1 0  9994
2 54843  42.9953 263.2349 0001258 266.0138 296.3797 15.66959342  1306
STARLINK-5388           
1 54844U 22177AA  23016.33334491 -.01221489  00000+0 -12869-1 0  9991
2 54844  42.9959 260.7232 0002180 267.6477 132.8414 15.66104265  3144
STARLINK-5082           
1 54845U 22177AB  23016.33334491 -.01240779  00000+0 -13141-1 0  9999
2 54845  42.9962 260.7308 0001618 266.8766 130.5202 15.66024181  3148
STARLINK-5360           
1 54846U 22177AC  23016.25001157 -.01234154  00000+0 -12913-1 0  9997
2 54846  42.9946 261.2242 0001553 273.0081  15.6551 15.66308358  3132
STARLINK-5061           
1 54847U 22177AD  23015.91668981 -.00802428  00000+0 -50938-2 0  9998
2 54847  42.9952 262.3494 0001506 269.4454 286.0635 15.77706368  3088
STARLINK-5432           
1 54848U 22177AE  23016.25001157  .00059597  00000+0  45501-3 0  9993
2 54848  42.9995 261.1751 0002005 259.2672  49.9668 15.71336949  3139
STARLINK-5434           
1 54849U 22177AF  23016.25001157 -.01227383  00000+0 -12803-1 0  9994
2 54849  42.9960 261.2217 0001528 269.6970  21.2201 15.66368355  3131
STARLINK-5087           
1 54850U 22177AG  23016.25001157  .00016830  00000+0  13149-3 0  9992
2 54850  42.9987 261.1743 0002086 258.4210  52.0201 15.71360979  3130
STARLINK-5084           
1 54851U 22177AH  23015.91668981 -.00006815  00000+0 -48560-4 0  9999
2 54851  42.9988 263.1881 0001825 250.8792 331.0752 15.71356623  1307
STARLINK-5418           
1 54852U 22177AJ  23015.91668981 -.00045758  00000+0 -34687-3 0  9993
2 54852  42.9994 263.1805 0002063 268.6839 315.6405 15.71389736  1309
STARLINK-5427           
1 54853U 22177AK  23016.25001157  .00010822  00000+0  85891-4 0  9994
2 54853  42.9991 261.1717 0001819 253.1694  57.8626 15.71347713  3135
STARLINK-5419           
1 54854U 22177AL  23016.33334491 -.00030393  00000+0 -22891-3 0  9991
2 54854  42.9993 260.6614 0002358 261.4089 163.9586 15.71378530  3143
STARLINK-5416           
1 54855U 22177AM  23016.16668981  .00082198  00000+0  62678-3 0  9992
2 54855  42.9986 261.6719 0001673 282.5813 278.4343 15.71253249  3110
STARLINK-5086           
1 54856U 22177AN  23016.25001157  .00038723  00000+0  29732-3 0  9998
2 54856  42.9994 261.1543 0002002 257.3604  60.2078 15.71358252  3139
STARLINK-5078           
1 54857U 22177AP  23015.91668981  .00004127  00000+0  34914-4 0  9995
2 54857  42.9993 263.1822 0002122 254.2291 329.5122 15.71348382  1303
STARLINK-5407           
1 54858U 22177AQ  23016.25001157  .00035577  00000+0  27376-3 0  9996
2 54858  42.9992 261.1620 0002452 260.5392  54.0615 15.71338820  3131
STARLINK-5409           
1 54859U 22177AR  23015.91668981 -.00017865  00000+0 -13308-3 0  9995
2 54859  42.9989 263.1697 0001953 246.9979 342.1183 15.71353254  1304
STARLINK-5406           
1 54860U 22177AS  23015.91668981  .00033136  00000+0  25567-3 0  9994
2 54860  42.9992 263.1644 0001929 278.1708 312.1777 15.71304144  1302
STARLINK-5400           
1 54861U 22177AT  23015.91668981  .00054783  00000+0  41903-3 0  9998
2 54861  42.9995 263.1752 0002129 246.3336 339.7949 15.71321977  1302
STARLINK-5403           
1 54862U 22177AU  23015.91668981 -.00033638  00000+0 -25403-3 0  9994
2 54862  43.0002 263.1784 0002055 271.2740 316.6527 15.71360423  1308
STARLINK-5405           
1 54863U 22177AV  23016.33334491 -.00045880  00000+0 -34819-3 0  9991
2 54863  42.9991 260.6546 0001913 272.0078 156.3716 15.71364586  3144
STARLINK-5359           
1 54864U 22177AW  23016.25001157  .00069186  00000+0  52722-3 0  9999
2 54864  42.9995 261.1491 0001698 254.0895  65.2637 15.71330319  3003
STARLINK-5411           
1 54865U 22177AX  23015.91668981 -.00033936  00000+0 -25630-3 0  9990
2 54865  42.9992 263.1730 0001991 248.6785 338.6470 15.71362465  1302
STARLINK-5398           
1 54866U 22177AY  23016.25001157  .00105891  00000+0  80252-3 0  9994
2 54866  42.9994 261.1445 0001836 276.4198  44.7313 15.71301625  3136
STARLINK-5396           
1 54867U 22177AZ  23015.91668981 -.00010023  00000+0 -73069-4 0  9994
2 54867  42.9991 263.1641 0001623 280.4780 310.4213 15.71357423  1306
STARLINK-5379           
1 54868U 22177BA  23016.25001157  .00068763  00000+0  52382-3 0  9995
2 54868  42.9999 261.1411 0002973 262.1156  60.2116 15.71337301  3005
STARLINK-5402           
1 54869U 22177BB  23015.91668981  .00002013  00000+0  18795-4 0  9999
2 54869  42.9999 263.1649 0001654 248.2546 344.4723 15.71352009  1308
STARLINK-5401           
1 54870U 22177BC  23016.25001157  .00044245  00000+0  33927-3 0  9991
2 54870  42.9995 261.1431 0002210 254.5677  67.1753 15.71339374  3008
STARLINK-5397           
1 54871U 22177BD  23016.33334491 -.00033101  00000+0 -24967-3 0  9996
2 54871  42.9995 260.6444 0001659 256.3421 175.5755 15.71383481  3015
STARLINK-5390           
1 54872U 22177BE  23016.33334491  .00010141  00000+0  80679-4 0  9997
2 54872  43.0044 260.8902 0002338 257.1703  80.8802 15.71357873  3018
STARLINK-5091           
1 54873U 22177BF  23016.33334491 -.00068517  00000+0 -52231-3 0  9992
2 54873  42.9992 260.6379 0001906 254.7297 180.1740 15.71400698  3149
SHIYAN 10-02 (SY-10 02) 
1 54878U 22178A   22363.79780338  .00077813 -29724-6  44292-2 0  9993
2 54878  50.9483 118.8361 7526050 225.2073  62.4530  2.01137286    41
CZ-3B R/B               
1 54879U 22178B   23015.33321477  .00010897  00000+0  19364-2 0  9993
2 54879  51.2599 114.8629 7525124 228.7945  36.9827  1.99337986   369
EROS C3                 
1 54880U 22179A   23016.28687385  .00000262  00000+0  00000+0 0  9993
2 54880 139.3595 320.0902 0010996  24.8975  68.8064 15.24688662  2594
2023-001A               
1 55009U 23001A   23015.51132319  .00008889  00000+0  52285-3 0  9998
2 55009  97.5016  77.4137 0010185 184.8513 175.2621 15.11843762  1950
2023-001B               
1 55010U 23001B   23015.51072213  .00014718  00000+0  85934-3 0  9991
2 55010  97.5039  77.4182 0010605 186.4556 173.6539 15.11975497  1950
2023-001C               
1 55011U 23001C   23015.51043492  .00013750  00000+0  80253-3 0  9993
2 55011  97.5065  77.4227 0011066 187.7828 172.3232 15.12000716  1958
2023-001D               
1 55012U 23001D   23015.50952784  .00010422  00000+0  60785-3 0  9997
2 55012  97.5088  77.4274 0011795 186.8685 173.2386 15.12091765  1950
